{"type":"FeatureCollection","crs":{"type":"name","properties":{"name":"EPSG:4326"}},"features":[{"type":"Feature","id":1,"geometry":{"type":"Polygon","coordinates":[[[-120.473686350553,34.5698773557623],[-120.473333798483,34.5698737255143],[-120.473046390643,34.5699103846664],[-120.472287072806,34.5697539328802],[-120.472021922364,34.5697304733031],[-120.471762849953,34.5697429448201],[-120.471317777293,34.5698220241909],[-120.470945099406,34.5698388690992],[-120.470577262401,34.5698112460087],[-120.469625310399,34.5699009527452],[-120.468227774034,34.5699500071514],[-120.467515911514,34.569954140069],[-120.46646791191,34.5699960744664],[-120.46557890732,34.5702311599932],[-120.465203796544,34.5703303539669],[-120.463382213863,34.5689277130229],[-120.461683307563,34.5676194706182],[-120.460982393075,34.5675335699333],[-120.460011165421,34.566930753519],[-120.459295797394,34.5656144899985],[-120.458136187312,34.565383138184],[-120.45700215687,34.5644119233411],[-120.455364743562,34.564442216846],[-120.452160965403,34.5644685989401],[-120.451153434849,34.563506795958],[-120.450686758335,34.5631569778384],[-120.449851351717,34.5627971270899],[-120.446354984852,34.5617762558746],[-120.441784757651,34.5599361831249],[-120.440836773295,34.5596668905843],[-120.43910296839,34.5593446196203],[-120.438431443379,34.5594343546229],[-120.435707431621,34.5600019013362],[-120.434106783728,34.5597169018923],[-120.432872278127,34.5591312064266],[-120.430292531634,34.5590159003066],[-120.430080659311,34.555753541501],[-120.432320947671,34.5487422493856],[-120.430837575126,34.547890606514],[-120.429393244165,34.5470613432944],[-120.425684021555,34.5457125751494],[-120.423580901839,34.5453107188056],[-120.420477045922,34.546632089074],[-120.41701015346,34.546608263196],[-120.413861523635,34.5465865381631],[-120.412274421212,34.5465755590021],[-120.408118465369,34.5471763062777],[-120.406967483603,34.5465756018611],[-120.407534730462,34.545661360653],[-120.40695703759,34.5441320701963],[-120.406318790965,34.5430846335384],[-120.407239747436,34.5419138011902],[-120.407444309189,34.5416502232735],[-120.409775295089,34.5407984780272],[-120.410716229555,34.5371712668942],[-120.407910934902,34.5352858605399],[-120.404968741043,34.5319741372621],[-120.402530280408,34.5306680740495],[-120.399470372839,34.5296322768083],[-120.398370817363,34.5275065900131],[-120.398176445977,34.5282890265363],[-120.397540155478,34.5284019421254],[-120.396871177568,34.5283624402364],[-120.395665765761,34.5280833057959],[-120.394291576576,34.5281092969107],[-120.393610754902,34.5279227688707],[-120.391980272868,34.5267877747881],[-120.391449902021,34.5266539828505],[-120.391018298404,34.5267312064751],[-120.391021783718,34.5268479557415],[-120.390516762397,34.526645584532],[-120.389541649705,34.5265512343725],[-120.38868899567,34.5264101903324],[-120.388034580174,34.5263019358968],[-120.387742824653,34.5260588230955],[-120.387124105246,34.5257464133064],[-120.386587174504,34.5256841928964],[-120.385928170134,34.5250131523127],[-120.38567737301,34.5247789111023],[-120.385272931728,34.5247019112121],[-120.385145631137,34.524306272515],[-120.385041114394,34.5237872224161],[-120.384849302163,34.5236950845411],[-120.38424977379,34.5236305943373],[-120.383951575984,34.5230628314923],[-120.383594932129,34.522957979884],[-120.38316475965,34.5231715792792],[-120.382528071216,34.5227139350452],[-120.382059069362,34.5225713201365],[-120.38151201823,34.5224758491403],[-120.381046673388,34.5224422187597],[-120.380935653792,34.5223844492575],[-120.381019233639,34.5232724248606],[-120.379479374285,34.5231964490583],[-120.376086987437,34.5220988471348],[-120.37601959729,34.5220770384069],[-120.375384378599,34.52171548148],[-120.375838529914,34.5207086692589],[-120.376004186543,34.5203169393338],[-120.376065345087,34.5201723128531],[-120.376004184678,34.5200843518875],[-120.375297838882,34.5190685056811],[-120.37479170735,34.5169866968722],[-120.372403733347,34.515141948877],[-120.367492930119,34.5152705097745],[-120.366088450604,34.5151350604019],[-120.36592545866,34.5150750550806],[-120.365464508703,34.5139528232594],[-120.364836265757,34.5132290736929],[-120.365043994183,34.5122574942994],[-120.363341613734,34.5097343378325],[-120.364031311057,34.5077274912312],[-120.363453443825,34.5054879756892],[-120.362509522192,34.5049483873316],[-120.361230096499,34.5032757620337],[-120.357714715968,34.5032173234705],[-120.359138994042,34.5002570229535],[-120.367271250882,34.5001333443206],[-120.367756345674,34.5001257184191],[-120.367978020282,34.4999953918511],[-120.376003924857,34.495276170726],[-120.377852222642,34.4941892245984],[-120.380006151494,34.4941410376015],[-120.384909287421,34.4940375651337],[-120.392364655227,34.4938798577433],[-120.392749487129,34.493872210474],[-120.397251274607,34.4937536652219],[-120.401914411365,34.4936564654308],[-120.402764275983,34.4936364732388],[-120.407929154373,34.4935148365334],[-120.412644400904,34.493402372968],[-120.41277094623,34.4920725668431],[-120.413585494626,34.4835122418806],[-120.413957009483,34.4796071190736],[-120.414225433089,34.4767856204283],[-120.414644183243,34.4723834909427],[-120.415215734487,34.4663743826704],[-120.415265899859,34.4658470832563],[-120.416399397239,34.4539349755559],[-120.416433815146,34.453573238934],[-120.416436939453,34.4535403676406],[-120.416828290271,34.4534473155562],[-120.417015142921,34.4533338631173],[-120.417340062973,34.4533424685248],[-120.418143157222,34.4530513334271],[-120.418564467565,34.4526864121296],[-120.418744720502,34.4523225896106],[-120.419104696916,34.4520094222005],[-120.419259958833,34.4517477177087],[-120.419392581577,34.4514631201374],[-120.419473827414,34.4512272336686],[-120.419619065609,34.4509789962904],[-120.419886115059,34.4507253245241],[-120.420359846245,34.4504258488256],[-120.421182648648,34.4500809477964],[-120.421672577778,34.4499535099498],[-120.422331234636,34.44986642078],[-120.422591388772,34.4498425359731],[-120.422996066653,34.44975199851],[-120.423707995025,34.4498007748598],[-120.424106241082,34.4497552084937],[-120.424698724782,34.4498475257418],[-120.425318046789,34.4498873458251],[-120.426081618645,34.4499876117235],[-120.426265553282,34.4500429902285],[-120.426586124817,34.4501114835941],[-120.426889572172,34.4501763182778],[-120.42759993983,34.4503280899175],[-120.429722453386,34.4505746132652],[-120.43028755793,34.4506402420846],[-120.431706617754,34.450975926558],[-120.432484136352,34.4510806315789],[-120.433524554498,34.4512207307904],[-120.433928286151,34.4512220792691],[-120.435680355705,34.4515477899588],[-120.437228964393,34.4515367374308],[-120.437721586906,34.4514165729679],[-120.438157555096,34.4514278605094],[-120.438764596707,34.4514958534452],[-120.439600251011,34.4515191484145],[-120.441179216005,34.4517179459893],[-120.441698960449,34.4516974619754],[-120.442589822058,34.4515973849552],[-120.444103949163,34.4512360878054],[-120.445080263135,34.4507953935108],[-120.445540001666,34.4503801419269],[-120.44567740029,34.4501142332963],[-120.445703306675,34.4497603534229],[-120.445946235586,34.4493795440465],[-120.446210393208,34.449103562033],[-120.446523432345,34.4489468832015],[-120.447865603594,34.448604042066],[-120.449465489536,34.448075544881],[-120.450828429148,34.4475142209116],[-120.451349748057,34.4473235618259],[-120.452391037213,34.4463673924985],[-120.453004299559,34.4452484979176],[-120.452675224952,34.4446725329165],[-120.452736386584,34.4439662274127],[-120.451958818788,34.4428818819495],[-120.452666492417,34.4423027622193],[-120.454239004852,34.4430671809444],[-120.456263929114,34.4433254334168],[-120.456522572212,34.4436312727305],[-120.456599711334,34.4444525954752],[-120.457444825185,34.4448873744521],[-120.4585929589,34.4446163115231],[-120.458805813164,34.4451511359198],[-120.458450124289,34.445740641472],[-120.458361109475,34.4458881029316],[-120.458551780078,34.4463733840346],[-120.458581317977,34.4465572464884],[-120.458646237226,34.4466137904198],[-120.458744792434,34.4468646215288],[-120.459430380002,34.4474617205897],[-120.460317245455,34.4478349814596],[-120.461757430464,34.4478870487828],[-120.462054979251,34.4482189409583],[-120.462350353142,34.4485484035171],[-120.4632364761,34.448921073176],[-120.464667774819,34.4493121646617],[-120.46595654804,34.4496243368213],[-120.466917822669,34.4492612791488],[-120.467641568214,34.4489548291224],[-120.467937950867,34.4492838278676],[-120.468474093638,34.4498789653581],[-120.469400493692,34.4496967801839],[-120.46952762045,34.4494208109374],[-120.470039058944,34.449247545047],[-120.470223918504,34.4489559621781],[-120.470633600405,34.4483138294805],[-120.47107358247,34.4485088214393],[-120.471614069871,34.4482689974714],[-120.471782528609,34.4482738158493],[-120.471741948059,34.4486325984547],[-120.471845513588,34.4488317461388],[-120.471404280148,34.4490604672263],[-120.471241641935,34.4495232378053],[-120.47119454318,34.4497887205598],[-120.470771416343,34.4500464516344],[-120.470136551132,34.4504331504186],[-120.470398522777,34.450857790244],[-120.470483901891,34.451650938923],[-120.470683935817,34.4520396188796],[-120.470940391308,34.4523743743469],[-120.471063592325,34.4527184892285],[-120.471122369609,34.4528742971257],[-120.471180482347,34.4530076897771],[-120.47136882084,34.4532265480095],[-120.472478467966,34.4541304649513],[-120.473046059594,34.457636389391],[-120.473304469413,34.4579689625929],[-120.473123426403,34.4582317262543],[-120.47411804801,34.4681547753035],[-120.475565421596,34.4736350861164],[-120.47845421901,34.4797429382892],[-120.480714213008,34.4816330906679],[-120.48169435265,34.4824527937524],[-120.48283232116,34.4836061122449],[-120.48533958796,34.4847576648497],[-120.488213558341,34.4870488501694],[-120.489177273407,34.4881557842485],[-120.490185142372,34.4895722613265],[-120.490435602479,34.4903587396579],[-120.490989849162,34.4920990862608],[-120.493581910463,34.4946024804419],[-120.495443950316,34.4947634083725],[-120.496318600769,34.4955091690225],[-120.49802396572,34.5005686774968],[-120.49625334588,34.5009660814368],[-120.496140482674,34.5011404528377],[-120.497593097048,34.5037421874388],[-120.498036179306,34.5044413375549],[-120.498193679734,34.5047135836965],[-120.498635907717,34.5054779873444],[-120.498831000653,34.5058767852785],[-120.498945588319,34.5061618191185],[-120.499076429812,34.5064694060343],[-120.499234464809,34.5069060334156],[-120.499246056943,34.5069452965364],[-120.499301621729,34.5071335120232],[-120.499166704481,34.5071553215707],[-120.499202165403,34.5073535904205],[-120.49922991747,34.507552700152],[-120.499249932075,34.5077524445502],[-120.499262189332,34.5079526182618],[-120.499266675883,34.5081530150025],[-120.499263387077,34.5083534266465],[-120.499252326992,34.5085536477322],[-120.499215151226,34.5088250505378],[-120.499159798501,34.5090471665886],[-120.499072165624,34.5093797145014],[-120.499013130294,34.5095834394168],[-120.498971787319,34.50973024532],[-120.498936444237,34.5098781216694],[-120.498907145765,34.5100268997765],[-120.498883921375,34.5101764119192],[-120.498774774955,34.5102487540391],[-120.49863765165,34.5103396400255],[-120.49831653444,34.5105524758105],[-120.498103437188,34.5106937148791],[-120.497998395842,34.5106947272064],[-120.498108356257,34.5120110576418],[-120.4981359823,34.5123417676046],[-120.498193938903,34.5130355362129],[-120.495996834797,34.5125745120076],[-120.495051754773,34.5120976960479],[-120.495051250727,34.5115248415326],[-120.49508111289,34.5108691243168],[-120.493982942444,34.5109227202064],[-120.493201412884,34.5110291283089],[-120.492281039862,34.5107955665041],[-120.492417273929,34.5114188215059],[-120.492401983756,34.5116861598434],[-120.491890180043,34.5118044969668],[-120.491629350973,34.5144104909989],[-120.49104152642,34.5144300764397],[-120.490617335538,34.5144442092003],[-120.490344545874,34.5147295042997],[-120.490422149978,34.5153067747963],[-120.490871076582,34.5153569059372],[-120.490927548303,34.5153518578682],[-120.491569602102,34.5153125451992],[-120.489931921809,34.5400298018041],[-120.48927990094,34.5494222843811],[-120.489204253463,34.5505118490127],[-120.488441538208,34.5614959172437],[-120.488233672738,34.5644775935459],[-120.487805039704,34.5688055261632],[-120.487471034622,34.5741887942906],[-120.487349274487,34.574177901164],[-120.486577892008,34.5739661420251],[-120.481751118572,34.5722447906483],[-120.478191098144,34.5712309427749],[-120.477612558281,34.5710636471504],[-120.47735157811,34.5709881788535],[-120.476969174537,34.5708673082804],[-120.47677985102,34.5707970648536],[-120.476380246646,34.5705692271859],[-120.476139431091,34.5704895529519],[-120.47584243332,34.5703569974851],[-120.475177885103,34.5702004366543],[-120.47495770735,34.5701982939342],[-120.474613013601,34.5701280259578],[-120.474281491829,34.5700088216791],[-120.473686350553,34.5698773557623]]]},"properties":{"FID":1,"Shape_Leng":50497.409484,"GIS_km":98.9934772607,"GIS_Acres":24458.6153971,"GlobalID":"892fd834-794e-4796-b0fa-7ecd9d94d28c"}}]}